OBJECT C                
1 57582U 23117C   25287.98359549  .00020670  00000+0  73748-3 0  9993
2 57582  97.4340   2.5224 0008801  39.1098 321.0776 15.28872727120950
